{"type": "FeatureCollection", "features": [ {"type": "Feature", "properties": {"norad_id": 57401, "name": "TIANMU-1 09", "group": "weather", "lat": -68.99206541880126, "lon": 56.24196277985471, "alt_km": 492.86181127377586, "timestamp": "2025-12-13T15:35:11.759054+00:00", "meta": {"OBJECT_NAME": "TIANMU-1 09", "OBJECT_ID": "2023-101C", "EPOCH": "2025-12-13T00:10:40.173024", "MEAN_MOTION": 15.28091504, "ECCENTRICITY": 0.00067968, "INCLINATION": 97.2827, "RA_OF_ASC_NODE": 36.1625, "ARG_OF_PERICENTER": 83.3207, "MEAN_ANOMALY": 276.8806, "EPHEMERIS_TYPE": 0, "CLASSIFICATION_TYPE": "U", "NORAD_CAT_ID": 57401, "ELEMENT_SET_NO": 999, "REV_AT_EPOCH": 13319, "BSTAR": 0.00040296123, "MEAN_MOTION_DOT": 0.00010977, "MEAN_MOTION_DDOT": 0}, "tle": {"line1": "1 57401U 23101C   25347.00740941  .00010977  00000+0  40296-3 0  9997", "line2": "2 57401  97.2827  36.1625 0006796  83.3207 276.8806 15.28091504133197"}}, "geometry": {"type": "Point", "coordinates": [56.24196277985471, -68.99206541880126]}}, {"type": "Feature", "properties": {"norad_id": 57402, "name": "TIANMU-1 10", "group": "weather", "lat": 76.15766268824177, "lon": -111.05530935431962, "alt_km": 468.88245382910463, "timestamp": "2025-12-13T15:35:11.759066+00:00", "meta": {"OBJECT_NAME": "TIANMU-1 10", "OBJECT_ID": "2023-101D", "EPOCH": "2025-12-13T00:59:56.401728", "MEAN_MOTION": 15.28082924, "ECCENTRICITY": 0.00085121, "INCLINATION": 97.2907, "RA_OF_ASC_NODE": 37.046, "ARG_OF_PERICENTER": 82.5433, "MEAN_ANOMALY": 277.6774, "EPHEMERIS_TYPE": 0, "CLASSIFICATION_TYPE": "U", "NORAD_CAT_ID": 57402, "ELEMENT_SET_NO": 999, "REV_AT_EPOCH": 13319, "BSTAR": 0.00040956388, "MEAN_MOTION_DOT": 0.0001116, "MEAN_MOTION_DDOT": 0}, "tle": {"line1": "1 57402U 23101D   25347.04162502  .00011160  00000+0  40956-3 0  9991", "line2": "2 57402  97.2907  37.0460 0008512  82.5433 277.6774 15.28082924133193"}}, "geometry": {"type": "Point", "coordinates": [-111.05530935431962, 76.15766268824177]}}, {"type": "Feature", "properties": {"norad_id": 57490, "name": "FENGYUN 3F", "group": "weather", "lat": 7.485769182726663, "lon": 54.77405593175345, "alt_km": 827.6256740954605, "timestamp": "2025-12-13T15:35:11.759076+00:00", "meta": {"OBJECT_NAME": "FENGYUN 3F", "OBJECT_ID": "2023-111A", "EPOCH": "2025-12-13T00:19:48.180576", "MEAN_MOTION": 14.19893692, "ECCENTRICITY": 6.8e-05, "INCLINATION": 98.7083, "RA_OF_ASC_NODE": 55.3027, "ARG_OF_PERICENTER": 102.5904, "MEAN_ANOMALY": 257.5349, "EPHEMERIS_TYPE": 0, "CLASSIFICATION_TYPE": "U", "NORAD_CAT_ID": 57490, "ELEMENT_SET_NO": 999, "REV_AT_EPOCH": 12244, "BSTAR": 8.6320594e-05, "MEAN_MOTION_DOT": 1.4e-06, "MEAN_MOTION_DDOT": 0}, "tle": {"line1": "1 57490U 23111A   25347.01375209  .00000140  00000+0  86321-4 0  9999", "line2": "2 57490  98.7083  55.3027 0000680 102.5904 257.5349 14.19893692122449"}}, "geometry": {"type": "Point", "coordinates": [54.77405593175345, 7.485769182726663]}}, {"type": "Feature", "properties": {"norad_id": 58584, "name": "ARKTIKA-M 2", "group": "weather", "lat": 58.07346699708453, "lon": -59.368690967137745, "alt_km": 33206.64892395914, "timestamp": "2025-12-13T15:35:11.759088+00:00", "meta": {"OBJECT_NAME": "ARKTIKA-M 2", "OBJECT_ID": "2023-198A", "EPOCH": "2025-12-08T20:10:13.977120", "MEAN_MOTION": 2.0060476, "ECCENTRICITY": 0.68646991, "INCLINATION": 63.2247, "RA_OF_ASC_NODE": 175.3152, "ARG_OF_PERICENTER": 268.1185, "MEAN_ANOMALY": 18.8267, "EPHEMERIS_TYPE": 0, "CLASSIFICATION_TYPE": "U", "NORAD_CAT_ID": 58584, "ELEMENT_SET_NO": 999, "REV_AT_EPOCH": 1450, "BSTAR": 0, "MEAN_MOTION_DOT": 1.66e-06, "MEAN_MOTION_DDOT": 0}, "tle": {"line1": "1 58584U 23198A   25342.84043955  .00000166  00000+0  00000+0 0  9998", "line2": "2 58584  63.2247 175.3152 6864699 268.1185  18.8267  2.00604760 14506"}}, "geometry": {"type": "Point", "coordinates": [-59.368690967137745, 58.07346699708453]}}, {"type": "Feature", "properties": {"norad_id": 58645, "name": "TIANMU-1 11", "group": "weather", "lat": -82.612256753521, "lon": 101.64763704761631, "alt_km": 495.0115264151291, "timestamp": "2025-12-13T15:35:11.759102+00:00", "meta": {"OBJECT_NAME": "TIANMU-1 11", "OBJECT_ID": "2023-205A", "EPOCH": "2025-12-13T00:13:51.683808", "MEAN_MOTION": 15.24604706, "ECCENTRICITY": 0.00078983, "INCLINATION": 97.3612, "RA_OF_ASC_NODE": 6.6282, "ARG_OF_PERICENTER": 309.3594, "MEAN_ANOMALY": 50.6943, "EPHEMERIS_TYPE": 0, "CLASSIFICATION_TYPE": "U", "NORAD_CAT_ID": 58645, "ELEMENT_SET_NO": 999, "REV_AT_EPOCH": 10913, "BSTAR": 0.00037780939, "MEAN_MOTION_DOT": 9.257e-05, "MEAN_MOTION_DDOT": 0}, "tle": {"line1": "1 58645U 23205A   25347.00962597  .00009257  00000+0  37781-3 0  9990", "line2": "2 58645  97.3612   6.6282 0007898 309.3594  50.6943 15.24604706109133"}}, "geometry": {"type": "Point", "coordinates": [101.64763704761631, -82.612256753521]}}, {"type": "Feature", "properties": {"norad_id": 58646, "name": "TIANMU-1 12", "group": "weather", "lat": 57.86865102784504, "lon": -161.06130720250073, "alt_km": 490.6806776531721, "timestamp": "2025-12-13T15:35:11.759114+00:00", "meta": {"OBJECT_NAME": "TIANMU-1 12", "OBJECT_ID": "2023-205B", "EPOCH": "2025-12-13T00:52:41.664576", "MEAN_MOTION": 15.24488159, "ECCENTRICITY": 0.00058658, "INCLINATION": 97.36, "RA_OF_ASC_NODE": 6.4601, "ARG_OF_PERICENTER": 290.1868, "MEAN_ANOMALY": 69.8739, "EPHEMERIS_TYPE": 0, "CLASSIFICATION_TYPE": "U", "NORAD_CAT_ID": 58646, "ELEMENT_SET_NO": 999, "REV_AT_EPOCH": 10912, "BSTAR": 0.00036826882, "MEAN_MOTION_DOT": 8.987e-05, "MEAN_MOTION_DDOT": 0}, "tle": {"line1": "1 58646U 23205B   25347.03659334  .00008987  00000+0  36827-3 0  9995", "line2": "2 58646  97.3600   6.4601 0005865 290.1868  69.8739 15.24488159109123"}}, "geometry": {"type": "Point", "coordinates": [-161.06130720250073, 57.86865102784504]}}, {"type": "Feature", "properties": {"norad_id": 58647, "name": "TIANMU-1 13", "group": "weather", "lat": -61.67092153916802, "lon": 21.141500070072844, "alt_km": 495.9253540078871, "timestamp": "2025-12-13T15:35:11.759124+00:00", "meta": {"OBJECT_NAME": "TIANMU-1 13", "OBJECT_ID": "2023-205C", "EPOCH": "2025-12-13T00:06:28.507968", "MEAN_MOTION": 15.24530597, "ECCENTRICITY": 0.00060334, "INCLINATION": 97.3628, "RA_OF_ASC_NODE": 6.6295, "ARG_OF_PERICENTER": 265.7644, "MEAN_ANOMALY": 94.2905, "EPHEMERIS_TYPE": 0, "CLASSIFICATION_TYPE": "U", "NORAD_CAT_ID": 58647, "ELEMENT_SET_NO": 999, "REV_AT_EPOCH": 10911, "BSTAR": 0.00039482767, "MEAN_MOTION_DOT": 9.653e-05, "MEAN_MOTION_DDOT": 0}, "tle": {"line1": "1 58647U 23205C   25347.00449662  .00009653  00000+0  39483-3 0  9996", "line2": "2 58647  97.3628   6.6295 0006033 265.7644  94.2905 15.24530597109113"}}, "geometry": {"type": "Point", "coordinates": [21.141500070072844, -61.67092153916802]}}, {"type": "Feature", "properties": {"norad_id": 58648, "name": "TIANMU-1 14", "group": "weather", "lat": 28.155426142800152, "lon": 2.6465604466414323, "alt_km": 493.3500421416302, "timestamp": "2025-12-13T15:35:11.759134+00:00", "meta": {"OBJECT_NAME": "TIANMU-1 14", "OBJECT_ID": "2023-205D", "EPOCH": "2025-12-13T01:17:05.419680", "MEAN_MOTION": 15.24515503, "ECCENTRICITY": 0.00068397, "INCLINATION": 97.356, "RA_OF_ASC_NODE": 6.0261, "ARG_OF_PERICENTER": 271.4647, "MEAN_ANOMALY": 88.5807, "EPHEMERIS_TYPE": 0, "CLASSIFICATION_TYPE": "U", "NORAD_CAT_ID": 58648, "ELEMENT_SET_NO": 999, "REV_AT_EPOCH": 10912, "BSTAR": 0.00037822162, "MEAN_MOTION_DOT": 9.241e-05, "MEAN_MOTION_DDOT": 0}, "tle": {"line1": "1 58648U 23205D   25347.05353495  .00009241  00000+0  37822-3 0  9998", "line2": "2 58648  97.3560   6.0261 0006839 271.4647  88.5807 15.24515503109125"}}, "geometry": {"type": "Point", "coordinates": [2.6465604466414323, 28.155426142800152]}}, {"type": "Feature", "properties": {"norad_id": 58660, "name": "TIANMU-1 19", "group": "weather", "lat": -64.67431000491185, "lon": 114.70999550601698, "alt_km": 487.3952603951293, "timestamp": "2025-12-13T15:35:11.759144+00:00", "meta": {"OBJECT_NAME": "TIANMU-1 19", "OBJECT_ID": "2023-208A", "EPOCH": "2025-12-13T00:09:19.892736", "MEAN_MOTION": 15.27857618, "ECCENTRICITY": 0.00041283, "INCLINATION": 97.4383, "RA_OF_ASC_NODE": 98.0427, "ARG_OF_PERICENTER": 251.9024, "MEAN_ANOMALY": 108.1766, "EPHEMERIS_TYPE": 0, "CLASSIFICATION_TYPE": "U", "NORAD_CAT_ID": 58660, "ELEMENT_SET_NO": 999, "REV_AT_EPOCH": 10886, "BSTAR": 0.00051383359, "MEAN_MOTION_DOT": 0.00013915, "MEAN_MOTION_DDOT": 0}, "tle": {"line1": "1 58660U 23208A   25347.00648024  .00013915  00000+0  51383-3 0  9996", "line2": "2 58660  97.4383  98.0427 0004128 251.9024 108.1766 15.27857618108861"}}, "geometry": {"type": "Point", "coordinates": [114.70999550601698, -64.67431000491185]}}, {"type": "Feature", "properties": {"norad_id": 58661, "name": "TIANMU-1 20", "group": "weather", "lat": 12.271319703237472, "lon": 97.50571998523968, "alt_km": 481.44933195045815, "timestamp": "2025-12-13T15:35:11.759155+00:00", "meta": {"OBJECT_NAME": "TIANMU-1 20", "OBJECT_ID": "2023-208B", "EPOCH": "2025-12-12T23:49:35.574240", "MEAN_MOTION": 15.29047726, "ECCENTRICITY": 0.00063246, "INCLINATION": 97.4321, "RA_OF_ASC_NODE": 98.4769, "ARG_OF_PERICENTER": 264.8678, "MEAN_ANOMALY": 95.184, "EPHEMERIS_TYPE": 0, "CLASSIFICATION_TYPE": "U", "NORAD_CAT_ID": 58661, "ELEMENT_SET_NO": 999, "REV_AT_EPOCH": 10893, "BSTAR": 0.00048311467, "MEAN_MOTION_DOT": 0.00013567, "MEAN_MOTION_DDOT": 0}, "tle": {"line1": "1 58661U 23208B   25346.99277285  .00013567  00000+0  48311-3 0  9991", "line2": "2 58661  97.4321  98.4769 0006324 264.8678  95.1840 15.29047726108934"}}, "geometry": {"type": "Point", "coordinates": [97.50571998523968, 12.271319703237472]}}]}